[{"OBJECT_NAME":"BANDWAGON-2 OBJECT D","OBJECT_ID":"2024-247D","EPOCH":"2026-03-09T12:32:33.670752","MEAN_MOTION":15.29076102,"ECCENTRICITY":0.00034883,"INCLINATION":44.9954,"RA_OF_ASC_NODE":115.671,"ARG_OF_PERICENTER":351.1453,"MEAN_ANOMALY":8.9368,"EPHEMERIS_TYPE":0,"CLASSIFICATION_TYPE":"U","NORAD_CAT_ID":62380,"ELEMENT_SET_NO":999,"REV_AT_EPOCH":6773,"BSTAR":0.00040119131,"MEAN_MOTION_DOT":0.00011259,"MEAN_MOTION_DDOT":0},{"OBJECT_NAME":"STARLINK-35407","OBJECT_ID":"2025-253R","EPOCH":"2026-03-09T11:15:16.781472","MEAN_MOTION":15.27588831,"ECCENTRICITY":0.00016378,"INCLINATION":42.9964,"RA_OF_ASC_NODE":213.5,"ARG_OF_PERICENTER":213.2147,"MEAN_ANOMALY":146.8603,"EPHEMERIS_TYPE":0,"CLASSIFICATION_TYPE":"U","NORAD_CAT_ID":66334,"ELEMENT_SET_NO":999,"REV_AT_EPOCH":2021,"BSTAR":0.00094235989,"MEAN_MOTION_DOT":0.00025768,"MEAN_MOTION_DDOT":0}]
